YAOGAN-43 01G           
1 60464U 24148G   26068.44348481  .00010133  00000+0  35873-3 0  9993
2 60464  35.0006  62.0013 0007382 306.3543  53.6492 15.28332833 87004
STARLINK-33720          
1 63468U 25070J   26068.54516576  .00022742  00000+0  83312-3 0  9998
2 63468  42.9952 260.6789 0000623 340.7460  19.3367 15.27590949 52954
